start=new Date('2022-01-22T00:00:00.000Z').valueOf();
sats=[{"RA_OF_ASC_NODE":"302.0958","TLE_LINE1":"1 47607U 21009BM  22021.51029044 -.00005329  00000-0 -33925-3 0  9994","ECCENTRICITY":"0.00016160","MEAN_MOTION_DDOT":"0.0000000000000","FILE":"3279442","LAUNCH_DATE":"2021-02-04","OBJECT_TYPE":"PAYLOAD","CENTER_NAME":"EARTH","TIME_SYSTEM":"UTC","DECAY_DATE":null,"INCLINATION":"53.0527","OBJECT_NAME":"STARLINK-2025","EPOCH":"2022-01-21T12:14:49.094016","MEAN_MOTION_DOT":"-0.00005329","OBJECT_ID":"2021-009BM","SEMIMAJOR_AXIS":"6925.387","REV_AT_EPOCH":"5421","SITE":"AFETR","MEAN_ANOMALY":"297.9489","NORAD_CAT_ID":"47607","COUNTRY_CODE":"US","MEAN_ELEMENT_THEORY":"SGP4","ARG_OF_PERICENTER":"62.1664","EPHEMERIS_TYPE":"0","CLASSIFICATION_TYPE":"U","GP_ID":"194335039","PERIOD":"95.593","ELEMENT_SET_NO":"999","RCS_SIZE":"LARGE","PERIAPSIS":"546.133","BSTAR":"-0.00033925000000","MEAN_MOTION":"15.06387379","TLE_LINE2":"2 47607  53.0527 302.0958 0001616  62.1664 297.9489 15.06387379 54213","REF_FRAME":"TEME","APOAPSIS":"548.371"},{"OBJECT_NAME":"STARLINK-1528","EPOCH":"2022-01-21T07:52:04.031616","MEAN_MOTION_DOT":"0.00001661","TIME_SYSTEM":"UTC","OBJECT_TYPE":"PAYLOAD","CENTER_NAME":"EARTH","LAUNCH_DATE":"2021-02-16","FILE":"3279324","DECAY_DATE":null,"INCLINATION":"53.0554","MEAN_MOTION_DDOT":"0.0000000000000","ECCENTRICITY":"0.00014310","RA_OF_ASC_NODE":"2.9201","TLE_LINE1":"1 47620U 21012A   22021.32782444  .00001661  00000-0  13041-3 0  9992","PERIAPSIS":"546.223","RCS_SIZE":"LARGE","ELEMENT_SET_NO":"999","PERIOD":"95.592","APOAPSIS":"548.205","REF_FRAME":"TEME","TLE_LINE2":"2 47620  53.0554   2.9201 0001431  69.8955 290.2188 15.06399768 52638","MEAN_MOTION":"15.06399768","BSTAR":"0.00013041000000","GP_ID":"194329238","CLASSIFICATION_TYPE":"U","EPHEMERIS_TYPE":"0","REV_AT_EPOCH":"5263","ARG_OF_PERICENTER":"69.8955","COUNTRY_CODE":"US","MEAN_ELEMENT_THEORY":"SGP4","NORAD_CAT_ID":"47620","SITE":"AFETR","MEAN_ANOMALY":"290.2188","SEMIMAJOR_AXIS":"6925.349","OBJECT_ID":"2021-012A"},{"CLASSIFICATION_TYPE":"U","GP_ID":"194328488","EPHEMERIS_TYPE":"0","APOAPSIS":"548.424","REF_FRAME":"TEME","TLE_LINE2":"2 47621  53.0559   2.3589 0001704  60.5485 299.5674 15.06390058 52664","MEAN_MOTION":"15.06390058","BSTAR":"-0.00021779000000","PERIAPSIS":"546.064","RCS_SIZE":"LARGE","ELEMENT_SET_NO":"999","PERIOD":"95.593","SEMIMAJOR_AXIS":"6925.379","OBJECT_ID":"2021-012B","MEAN_ELEMENT_THEORY":"SGP4","COUNTRY_CODE":"US","ARG_OF_PERICENTER":"60.5485","NORAD_CAT_ID":"47621","SITE":"AFETR","MEAN_ANOMALY":"299.5674","REV_AT_EPOCH":"5266","MEAN_MOTION_DOT":"-0.00003523","EPOCH":"2022-01-21T10:52:32.382048","OBJECT_NAME":"STARLINK-1609","MEAN_MOTION_DDOT":"0.0000000000000","ECCENTRICITY":"0.00017040","RA_OF_ASC_NODE":"2.3589","TLE_LINE1":"1 47621U 21012B   22021.45315257 -.00003523  00000-0 -21779-3 0  9999","DECAY_DATE":null,"INCLINATION":"53.0559","TIME_SYSTEM":"UTC","OBJECT_TYPE":"PAYLOAD","CENTER_NAME":"EARTH","LAUNCH_DATE":"2021-02-16","FILE":"3279324"},{"EPOCH":"2022-01-21T06:00:37.044000","OBJECT_NAME":"STARLINK-1645","MEAN_MOTION_DOT":"0.00000246","ECCENTRICITY":"0.00015420","MEAN_MOTION_DDOT":"0.0000000000000","TLE_LINE1":"1 47622U 21012C   22021.25042875  .00000246  00000-0  35453-4 0  9993","RA_OF_ASC_NODE":"3.2568","TIME_SYSTEM":"UTC","FILE":"3279324","LAUNCH_DATE":"2021-02-16","CENTER_NAME":"EARTH","OBJECT_TYPE":"PAYLOAD","DECAY_DATE":null,"INCLINATION":"53.0562","EPHEMERIS_TYPE":"0","CLASSIFICATION_TYPE":"U","GP_ID":"194328234","RCS_SIZE":"LARGE","PERIAPSIS":"546.174","PERIOD":"95.593","ELEMENT_SET_NO":"999","TLE_LINE2":"2 47622  53.0562   3.2568 0001542  67.1989 292.9162 15.06390620 52628","REF_FRAME":"TEME","APOAPSIS":"548.310","BSTAR":"0.00003545300000","MEAN_MOTION":"15.06390620","SEMIMAJOR_AXIS":"6925.377","OBJECT_ID":"2021-012C","REV_AT_EPOCH":"5262","MEAN_ELEMENT_THEORY":"SGP4","COUNTRY_CODE":"US","ARG_OF_PERICENTER":"67.1989","NORAD_CAT_ID":"47622","SITE":"AFETR","MEAN_ANOMALY":"292.9162"},{"ECCENTRICITY":"0.00014940","MEAN_MOTION_DDOT":"0.0000000000000","TLE_LINE1":"1 47623U 21012D   22021.46097997 -.00005036  00000-0 -31951-3 0  9994","RA_OF_ASC_NODE":"297.3181","INCLINATION":"53.0552","DECAY_DATE":null,"TIME_SYSTEM":"UTC","LAUNCH_DATE":"2021-02-16","FILE":"3279324","OBJECT_TYPE":"PAYLOAD","CENTER_NAME":"EARTH","MEAN_MOTION_DOT":"-0.00005036","EPOCH":"2022-01-21T11:03:48.669408","OBJECT_NAME":"STARLINK-1655","OBJECT_ID":"2021-012D","SEMIMAJOR_AXIS":"6925.389","MEAN_ELEMENT_THEORY":"SGP4","COUNTRY_CODE":"US","NORAD_CAT_ID":"47623","ARG_OF_PERICENTER":"54.5809","SITE":"AFETR","MEAN_ANOMALY":"305.5319","REV_AT_EPOCH":"5357","EPHEMERIS_TYPE":"0","GP_ID":"194328988","CLASSIFICATION_TYPE":"U","TLE_LINE2":"2 47623  53.0552 297.3181 0001494  54.5809 305.5319 15.06386884 53579","APOAPSIS":"548.288","REF_FRAME":"TEME","BSTAR":"-0.00031951000000","MEAN_MOTION":"15.06386884","PERIAPSIS":"546.219","RCS_SIZE":"LARGE","PERIOD":"95.593","ELEMENT_SET_NO":"999"},{"COUNTRY_CODE":"US","MEAN_ELEMENT_THEORY":"SGP4","NORAD_CAT_ID":"47624","ARG_OF_PERICENTER":"66.9093","MEAN_ANOMALY":"293.2051","SITE":"AFETR","REV_AT_EPOCH":"5297","OBJECT_ID":"2021-012E","SEMIMAJOR_AXIS":"6925.407","TLE_LINE2":"2 47624  53.0563 341.7520 0001471  66.9093 293.2051 15.06380834 52978","REF_FRAME":"TEME","APOAPSIS":"548.291","BSTAR":"-0.00026879000000","MEAN_MOTION":"15.06380834","RCS_SIZE":"LARGE","PERIAPSIS":"546.254","PERIOD":"95.593","ELEMENT_SET_NO":"999","EPHEMERIS_TYPE":"0","GP_ID":"194329738","CLASSIFICATION_TYPE":"U","DECAY_DATE":null,"INCLINATION":"53.0563","TIME_SYSTEM":"UTC","LAUNCH_DATE":"2021-02-16","FILE":"3279324","CENTER_NAME":"EARTH","OBJECT_TYPE":"PAYLOAD","ECCENTRICITY":"0.00014710","MEAN_MOTION_DDOT":"0.0000000000000","RA_OF_ASC_NODE":"341.7520","TLE_LINE1":"1 47624U 21012E   22021.58769156 -.00004281  00000-0 -26879-3 0  9995","MEAN_MOTION_DOT":"-0.00004281","EPOCH":"2022-01-21T14:06:16.550784","OBJECT_NAME":"STARLINK-1669"},{"COUNTRY_CODE":"US","ARG_OF_PERICENTER":"69.0116","MEAN_ELEMENT_THEORY":"SGP4","NORAD_CAT_ID":"47625","SITE":"AFETR","MEAN_ANOMALY":"291.1046","REV_AT_EPOCH":"5265","SEMIMAJOR_AXIS":"6925.370","OBJECT_ID":"2021-012F","APOAPSIS":"548.352","REF_FRAME":"TEME","TLE_LINE2":"2 47625  53.0567   2.3402 0001613  69.0116 291.1046 15.06393059 52659","MEAN_MOTION":"15.06393059","BSTAR":"-0.00000168890000","PERIAPSIS":"546.118","RCS_SIZE":"LARGE","ELEMENT_SET_NO":"999","PERIOD":"95.593","CLASSIFICATION_TYPE":"U","GP_ID":"194327989","EPHEMERIS_TYPE":"0","INCLINATION":"53.0567","DECAY_DATE":null,"TIME_SYSTEM":"UTC","CENTER_NAME":"EARTH","OBJECT_TYPE":"PAYLOAD","FILE":"3279324","LAUNCH_DATE":"2021-02-16","MEAN_MOTION_DDOT":"0.0000000000000","ECCENTRICITY":"0.00016130","TLE_LINE1":"1 47625U 21012F   22021.45683561 -.00000307  00000-0 -16889-5 0  9994","RA_OF_ASC_NODE":"2.3402","MEAN_MOTION_DOT":"-0.00000307","EPOCH":"2022-01-21T10:57:50.596704","OBJECT_NAME":"STARLINK-1704"},{"SEMIMAJOR_AXIS":"6925.376","OBJECT_ID":"2021-012G","COUNTRY_CODE":"US","ARG_OF_PERICENTER":"58.9304","MEAN_ELEMENT_THEORY":"SGP4","NORAD_CAT_ID":"47626","MEAN_ANOMALY":"301.1841","SITE":"AFETR","REV_AT_EPOCH":"5211","CLASSIFICATION_TYPE":"U","GP_ID":"194298306","EPHEMERIS_TYPE":"0","APOAPSIS":"548.344","REF_FRAME":"TEME","TLE_LINE2":"2 47626  53.0580   3.2907 0001593  58.9304 301.1841 15.06390974 52117","MEAN_MOTION":"15.06390974","BSTAR":"0.00000798810000","RCS_SIZE":"LARGE","PERIAPSIS":"546.138","ELEMENT_SET_NO":"999","PERIOD":"95.593","MEAN_MOTION_DDOT":"0.0000000000000","ECCENTRICITY":"0.00015930","TLE_LINE1":"1 47626U 21012G   22021.24305887 -.00000163  00000-0  79881-5 0  9994","RA_OF_ASC_NODE":"3.2907","INCLINATION":"53.0580","DECAY_DATE":null,"TIME_SYSTEM":"UTC","CENTER_NAME":"EARTH","OBJECT_TYPE":"PAYLOAD","LAUNCH_DATE":"2021-02-16","FILE":"3278937","MEAN_MOTION_DOT":"-0.00000163","OBJECT_NAME":"STARLINK-1761","EPOCH":"2022-01-21T05:50:00.286368"},{"RCS_SIZE":"MEDIUM","PERIAPSIS":"546.016","PERIOD":"95.592","ELEMENT_SET_NO":"999","TLE_LINE2":"2 47627  53.0516 265.2704 0001745  64.3401 293.3250 15.06396423 53538","REF_FRAME":"TEME","APOAPSIS":"548.433","BSTAR":"-0.00137250000000","MEAN_MOTION":"15.06396423","EPHEMERIS_TYPE":"0","CLASSIFICATION_TYPE":"U","GP_ID":"194333269","REV_AT_EPOCH":"5353","COUNTRY_CODE":"US","MEAN_ELEMENT_THEORY":"SGP4","NORAD_CAT_ID":"47627","ARG_OF_PERICENTER":"64.3401","SITE":"AFETR","MEAN_ANOMALY":"293.3250","OBJECT_ID":"2021-012H","SEMIMAJOR_AXIS":"6925.360","EPOCH":"2022-01-21T22:00:00.999936","OBJECT_NAME":"STARLINK-1972","MEAN_MOTION_DOT":"-0.00020664","TIME_SYSTEM":"UTC","FILE":"3279399","LAUNCH_DATE":"2021-02-16","OBJECT_TYPE":"PAYLOAD","CENTER_NAME":"EARTH","DECAY_DATE":null,"INCLINATION":"53.0516","ECCENTRICITY":"0.00017450","MEAN_MOTION_DDOT":"0.0000000000000","TLE_LINE1":"1 47627U 21012H   22021.91667824 -.00020664  00000-0 -13725-2 0  9992","RA_OF_ASC_NODE":"265.2704"},{"REV_AT_EPOCH":"5264","ARG_OF_PERICENTER":"69.5110","COUNTRY_CODE":"US","NORAD_CAT_ID":"47628","MEAN_ELEMENT_THEORY":"SGP4","SITE":"AFETR","MEAN_ANOMALY":"290.6060","OBJECT_ID":"2021-012J","SEMIMAJOR_AXIS":"6925.373","PERIAPSIS":"546.068","RCS_SIZE":"LARGE","PERIOD":"95.593","ELEMENT_SET_NO":"999","TLE_LINE2":"2 47628  53.0550   2.8471 0001689  69.5110 290.6060 15.06392132 52647","REF_FRAME":"TEME","APOAPSIS":"548.407","BSTAR":"-0.00005166900000","MEAN_MOTION":"15.06392132","EPHEMERIS_TYPE":"0","GP_ID":"194329239","CLASSIFICATION_TYPE":"U","TIME_SYSTEM":"UTC","LAUNCH_DATE":"2021-02-16","FILE":"3279324","CENTER_NAME":"EARTH","OBJECT_TYPE":"PAYLOAD","INCLINATION":"53.0550","DECAY_DATE":null,"ECCENTRICITY":"0.00016890","MEAN_MOTION_DDOT":"0.0000000000000","TLE_LINE1":"1 47628U 21012J   22021.34625949 -.00001051  00000-0 -51669-4 0  9992","RA_OF_ASC_NODE":"2.8471","OBJECT_NAME":"STARLINK-1973","EPOCH":"2022-01-21T08:18:36.819936","MEAN_MOTION_DOT":"-0.00001051"}];
